{"type": "FeatureCollection", "features": [ {"type": "Feature", "properties": {"norad_id": 40664, "name": "SKY MEXICO-1", "group": "intelsat", "lat": -0.019432396822310995, "lon": -110.6202477524996, "alt_km": 35777.740899793724, "timestamp": "2025-12-27T15:27:10.811317+00:00", "meta": {"OBJECT_NAME": "SKY MEXICO-1", "OBJECT_ID": "2015-026B", "EPOCH": "2025-12-27T05:53:19.892832", "MEAN_MOTION": 1.00271915, "ECCENTRICITY": 0.000255, "INCLINATION": 0.0093, "RA_OF_ASC_NODE": 33.9351, "ARG_OF_PERICENTER": 254.9051, "MEAN_ANOMALY": 176.7104, "EPHEMERIS_TYPE": 0, "CLASSIFICATION_TYPE": "U", "NORAD_CAT_ID": 40664, "ELEMENT_SET_NO": 999, "REV_AT_EPOCH": 3873, "BSTAR": 0, "MEAN_MOTION_DOT": -2.12e-06, "MEAN_MOTION_DDOT": 0}, "tle": {"line1": "1 40664U 15026B   25361.24536913 -.00000212  00000+0  00000+0 0  9998", "line2": "2 40664   0.0093  33.9351 0002550 254.9051 176.7104  1.00271915 38739"}}, "geometry": {"type": "Point", "coordinates": [-110.6202477524996, -0.019432396822310995]}}, {"type": "Feature", "properties": {"norad_id": 40874, "name": "INTELSAT 34 (IS-34)", "group": "intelsat", "lat": -0.02981366025168348, "lon": -87.35592063205334, "alt_km": 35787.612557944565, "timestamp": "2025-12-27T15:27:10.811329+00:00", "meta": {"OBJECT_NAME": "INTELSAT 34 (IS-34)", "OBJECT_ID": "2015-039A", "EPOCH": "2025-12-26T01:50:17.564352", "MEAN_MOTION": 1.00269247, "ECCENTRICITY": 5.15e-05, "INCLINATION": 0.0147, "RA_OF_ASC_NODE": 340.5004, "ARG_OF_PERICENTER": 185.0401, "MEAN_ANOMALY": 261.3543, "EPHEMERIS_TYPE": 0, "CLASSIFICATION_TYPE": "U", "NORAD_CAT_ID": 40874, "ELEMENT_SET_NO": 999, "REV_AT_EPOCH": 3788, "BSTAR": 0, "MEAN_MOTION_DOT": -2.64e-06, "MEAN_MOTION_DDOT": 0}, "tle": {"line1": "1 40874U 15039A   25360.07659218 -.00000264  00000+0  00000+0 0  9996", "line2": "2 40874   0.0147 340.5004 0000515 185.0401 261.3543  1.00269247 37884"}}, "geometry": {"type": "Point", "coordinates": [-87.35592063205334, -0.02981366025168348]}}, {"type": "Feature", "properties": {"norad_id": 41581, "name": "INTELSAT 31 (IS-31)", "group": "intelsat", "lat": -0.013978708508581487, "lon": -126.92110128535379, "alt_km": 35779.62504294871, "timestamp": "2025-12-27T15:27:10.811341+00:00", "meta": {"OBJECT_NAME": "INTELSAT 31 (IS-31)", "OBJECT_ID": "2016-035A", "EPOCH": "2025-12-23T19:31:44.703840", "MEAN_MOTION": 1.00269658, "ECCENTRICITY": 0.0001926, "INCLINATION": 0.0283, "RA_OF_ASC_NODE": 262.055, "ARG_OF_PERICENTER": 303.365, "MEAN_ANOMALY": 85.0534, "EPHEMERIS_TYPE": 0, "CLASSIFICATION_TYPE": "U", "NORAD_CAT_ID": 41581, "ELEMENT_SET_NO": 999, "REV_AT_EPOCH": 3492, "BSTAR": 0, "MEAN_MOTION_DOT": -1.29e-06, "MEAN_MOTION_DDOT": 0}, "tle": {"line1": "1 41581U 16035A   25357.81371185 -.00000129  00000+0  00000+0 0  9991", "line2": "2 41581   0.0283 262.0550 0001926 303.3650  85.0534  1.00269658 34922"}}, "geometry": {"type": "Point", "coordinates": [-126.92110128535379, -0.013978708508581487]}}, {"type": "Feature", "properties": {"norad_id": 41747, "name": "INTELSAT 36 (IS-36)", "group": "intelsat", "lat": 0.014635822923725034, "lon": 36.6510457063414, "alt_km": 35787.76712370318, "timestamp": "2025-12-27T15:27:10.811354+00:00", "meta": {"OBJECT_NAME": "INTELSAT 36 (IS-36)", "OBJECT_ID": "2016-053A", "EPOCH": "2025-12-27T03:03:20.357280", "MEAN_MOTION": 1.00264918, "ECCENTRICITY": 8.535e-05, "INCLINATION": 0.0102, "RA_OF_ASC_NODE": 6.9586, "ARG_OF_PERICENTER": 303.4342, "MEAN_ANOMALY": 259.7991, "EPHEMERIS_TYPE": 0, "CLASSIFICATION_TYPE": "U", "NORAD_CAT_ID": 41747, "ELEMENT_SET_NO": 999, "REV_AT_EPOCH": 3422, "BSTAR": 0, "MEAN_MOTION_DOT": -1e-08, "MEAN_MOTION_DDOT": 0}, "tle": {"line1": "1 41747U 16053A   25361.12731895 -.00000001  00000+0  00000+0 0  9991", "line2": "2 41747   0.0102   6.9586 0000853 303.4342 259.7991  1.00264918 34221"}}, "geometry": {"type": "Point", "coordinates": [36.6510457063414, 0.014635822923725034]}}, {"type": "Feature", "properties": {"norad_id": 41945, "name": "INTELSAT 32E (IS-32E)", "group": "intelsat", "lat": -0.027286269129730745, "lon": -75.01511291235562, "alt_km": 35785.03917220785, "timestamp": "2025-12-27T15:27:10.811365+00:00", "meta": {"OBJECT_NAME": "INTELSAT 32E (IS-32E)", "OBJECT_ID": "2017-007B", "EPOCH": "2025-12-27T04:14:10.684320", "MEAN_MOTION": 1.00273823, "ECCENTRICITY": 3.014e-05, "INCLINATION": 0.0262, "RA_OF_ASC_NODE": 75.2297, "ARG_OF_PERICENTER": 275.2972, "MEAN_ANOMALY": 125.7539, "EPHEMERIS_TYPE": 0, "CLASSIFICATION_TYPE": "U", "NORAD_CAT_ID": 41945, "ELEMENT_SET_NO": 999, "REV_AT_EPOCH": 3250, "BSTAR": 0, "MEAN_MOTION_DOT": -2.46e-06, "MEAN_MOTION_DDOT": 0}, "tle": {"line1": "1 41945U 17007B   25361.17651255 -.00000246  00000+0  00000+0 0  9998", "line2": "2 41945   0.0262  75.2297 0000301 275.2972 125.7539  1.00273823 32503"}}, "geometry": {"type": "Point", "coordinates": [-75.01511291235562, -0.027286269129730745]}}, {"type": "Feature", "properties": {"norad_id": 42818, "name": "INTELSAT 35E (IS-35E)", "group": "intelsat", "lat": -0.03214824385679309, "lon": -66.3229714282162, "alt_km": 35777.56293557772, "timestamp": "2025-12-27T15:27:10.811377+00:00", "meta": {"OBJECT_NAME": "INTELSAT 35E (IS-35E)", "OBJECT_ID": "2017-041A", "EPOCH": "2025-12-27T05:59:23.108064", "MEAN_MOTION": 1.00273326, "ECCENTRICITY": 0.00020846, "INCLINATION": 0.0169, "RA_OF_ASC_NODE": 44.8001, "ARG_OF_PERICENTER": 225.9533, "MEAN_ANOMALY": 240.5821, "EPHEMERIS_TYPE": 0, "CLASSIFICATION_TYPE": "U", "NORAD_CAT_ID": 42818, "ELEMENT_SET_NO": 999, "REV_AT_EPOCH": 3109, "BSTAR": 0, "MEAN_MOTION_DOT": -2.15e-06, "MEAN_MOTION_DDOT": 0}, "tle": {"line1": "1 42818U 17041A   25361.24957301 -.00000215  00000+0  00000+0 0  9991", "line2": "2 42818   0.0169  44.8001 0002084 225.9533 240.5821  1.00273326 31090"}}, "geometry": {"type": "Point", "coordinates": [-66.3229714282162, -0.03214824385679309]}}, {"type": "Feature", "properties": {"norad_id": 42950, "name": "INTELSAT 37E (IS-37E)", "group": "intelsat", "lat": -0.03429053428567443, "lon": -49.804867500322764, "alt_km": 35777.01725105984, "timestamp": "2025-12-27T15:27:10.811404+00:00", "meta": {"OBJECT_NAME": "INTELSAT 37E (IS-37E)", "OBJECT_ID": "2017-059A", "EPOCH": "2025-12-27T06:04:07.654368", "MEAN_MOTION": 1.0027135, "ECCENTRICITY": 0.00031396, "INCLINATION": 0.0183, "RA_OF_ASC_NODE": 31.0163, "ARG_OF_PERICENTER": 232.9411, "MEAN_ANOMALY": 265.0711, "EPHEMERIS_TYPE": 0, "CLASSIFICATION_TYPE": "U", "NORAD_CAT_ID": 42950, "ELEMENT_SET_NO": 999, "REV_AT_EPOCH": 3034, "BSTAR": 0, "MEAN_MOTION_DOT": -1.18e-06, "MEAN_MOTION_DDOT": 0}, "tle": {"line1": "1 42950U 17059A   25361.25286637 -.00000118  00000+0  00000+0 0  9997", "line2": "2 42950   0.0183  31.0163 0003139 232.9411 265.0711  1.00271350 30347"}}, "geometry": {"type": "Point", "coordinates": [-49.804867500322764, -0.03429053428567443]}}, {"type": "Feature", "properties": {"norad_id": 43632, "name": "AZERSPACE 2 (IS-38)", "group": "intelsat", "lat": 6.55098079051637e-05, "lon": 13.289559327298978, "alt_km": 35786.73402821904, "timestamp": "2025-12-27T15:27:10.811417+00:00", "meta": {"OBJECT_NAME": "AZERSPACE 2 (IS-38)", "OBJECT_ID": "2018-074A", "EPOCH": "2025-12-27T04:39:23.270976", "MEAN_MOTION": 1.00270862, "ECCENTRICITY": 0.00015855, "INCLINATION": 0.0023, "RA_OF_ASC_NODE": 104.065, "ARG_OF_PERICENTER": 175.428, "MEAN_ANOMALY": 291.3955, "EPHEMERIS_TYPE": 0, "CLASSIFICATION_TYPE": "U", "NORAD_CAT_ID": 43632, "ELEMENT_SET_NO": 999, "REV_AT_EPOCH": 2672, "BSTAR": 0, "MEAN_MOTION_DOT": 1.59e-06, "MEAN_MOTION_DDOT": 0}, "tle": {"line1": "1 43632U 18074A   25361.19401934  .00000159  00000+0  00000+0 0  9999", "line2": "2 43632   0.0023 104.0650 0001585 175.4280 291.3955  1.00270862 26724"}}, "geometry": {"type": "Point", "coordinates": [13.289559327298978, 6.55098079051637e-05]}}, {"type": "Feature", "properties": {"norad_id": 43633, "name": "HORIZONS-3E", "group": "intelsat", "lat": -0.028320461457187848, "lon": 137.17410896284545, "alt_km": 35787.951722979305, "timestamp": "2025-12-27T15:27:10.811428+00:00", "meta": {"OBJECT_NAME": "HORIZONS-3E", "OBJECT_ID": "2018-074B", "EPOCH": "2025-12-26T17:15:43.848864", "MEAN_MOTION": 1.00274781, "ECCENTRICITY": 7.286e-05, "INCLINATION": 0.0491, "RA_OF_ASC_NODE": 194.9821, "ARG_OF_PERICENTER": 94.8605, "MEAN_ANOMALY": 233.5586, "EPHEMERIS_TYPE": 0, "CLASSIFICATION_TYPE": "U", "NORAD_CAT_ID": 43633, "ELEMENT_SET_NO": 999, "REV_AT_EPOCH": 2661, "BSTAR": 0, "MEAN_MOTION_DOT": -7e-08, "MEAN_MOTION_DDOT": 0}, "tle": {"line1": "1 43633U 18074B   25360.71925751 -.00000007  00000+0  00000+0 0  9998", "line2": "2 43633   0.0491 194.9821 0000728  94.8605 233.5586  1.00274781 26615"}}, "geometry": {"type": "Point", "coordinates": [137.17410896284545, -0.028320461457187848]}}, {"type": "Feature", "properties": {"norad_id": 44333, "name": "AT&T T-16", "group": "intelsat", "lat": -0.0002790922184006365, "lon": -132.64708691246662, "alt_km": 35780.79129444757, "timestamp": "2025-12-27T15:27:10.811441+00:00", "meta": {"OBJECT_NAME": "AT&T T-16", "OBJECT_ID": "2019-034A", "EPOCH": "2025-12-26T09:24:01.437984", "MEAN_MOTION": 1.00280007, "ECCENTRICITY": 9.59e-05, "INCLINATION": 0.0209, "RA_OF_ASC_NODE": 69.0211, "ARG_OF_PERICENTER": 116.5883, "MEAN_ANOMALY": 309.683, "EPHEMERIS_TYPE": 0, "CLASSIFICATION_TYPE": "U", "NORAD_CAT_ID": 44333, "ELEMENT_SET_NO": 999, "REV_AT_EPOCH": 2390, "BSTAR": 0, "MEAN_MOTION_DOT": -9.5e-07, "MEAN_MOTION_DDOT": 0}, "tle": {"line1": "1 44333U 19034A   25360.39168331 -.00000095  00000+0  00000+0 0  9997", "line2": "2 44333   0.0209  69.0211 0000959 116.5883 309.6830  1.00280007 23905"}}, "geometry": {"type": "Point", "coordinates": [-132.64708691246662, -0.0002790922184006365]}}]}